OBJECT_NAME,OBJECT_ID,EPOCH,MEAN_MOTION,ECCENTRICITY,INCLINATION,RA_OF_ASC_NODE,ARG_OF_PERICENTER,MEAN_ANOMALY,EPHEMERIS_TYPE,CLASSIFICATION_TYPE,NORAD_CAT_ID,ELEMENT_SET_NO,REV_AT_EPOCH,BSTAR,MEAN_MOTION_DOT,MEAN_MOTION_DDOT
STARLINK-4400,2022-099D,2026-05-13T06:54:25.026624,15.05630076,.0000411,97.5035,253.6379,321.3301,38.7897,0,U,53468,999,20569,-.18317E-3,-.27E-4,0
STARLINK-4621,2022-105AE,2026-05-13T05:22:40.732320,15.05620264,.0001513,97.4970,13.5838,77.9515,282.1881,0,U,53676,999,20294,.46624E-3,.6669E-4,0
SHERPA-LTC2,2022-107BG,2026-05-13T08:42:30.755808,14.69186771,.0397681,53.2349,7.7079,128.7223,235.0017,0,U,53754,999,19742,.22329E-3,.4271E-4,0
CENTISPACE-1 S3,2022-108A,2026-05-13T12:40:57.281664,14.61219691,.0008228,53.5319,198.5717,248.9315,111.0780,0,U,53757,999,19646,.66902E-4,.143E-5,0
CENTISPACE-1 S4,2022-108B,2026-05-13T12:41:26.293056,14.61892620,.0007972,53.5294,196.2513,234.4441,125.5792,0,U,53758,999,19649,.82191E-4,.224E-5,0
BLUEWALKER-3,2022-111AL,2026-05-13T08:23:29.698656,15.37840579,.0007406,53.2284,197.4652,71.0801,289.1006,0,U,53807,999,20484,.82042E-4,.2704E-4,0
YUNHAI-1 03,2022-115A,2026-05-13T11:28:15.481344,14.32693633,.0005493,98.5537,132.0671,137.9408,222.2198,0,U,53877,999,19054,.1168E-3,.274E-5,0
CENTISPACE-1 S5,2022-126A,2026-05-13T12:16:28.864416,14.62948980,.0012401,55.0001,351.7145,3.7020,356.4063,0,U,54020,999,19196,.13047E-3,.484E-5,0
CENTISPACE-1 S6,2022-126B,2026-05-13T11:42:10.226304,14.62238907,.0014234,55.0004,353.5157,2.5486,357.5578,0,U,54021,999,19192,.11084E-3,.375E-5,0
OTB-3-GAZELLE,2022-127A,2026-05-13T09:09:31.254336,14.42661424,.0011964,98.3941,125.6182,296.5146,63.4816,0,U,54023,999,18934,.39133E-4,.87E-6,0
ASO-S,2022-129A,2026-05-13T10:55:08.671872,14.52044013,.0013921,98.2756,139.0327,194.2106,165.8700,0,U,54029,999,19038,.38596E-4,.112E-5,0
HJ-2E,2022-132A,2026-05-13T10:34:42.561696,15.21778642,.0022346,97.3806,138.4585,128.2330,232.0922,0,U,54035,999,19913,.20745E-3,.4667E-4,0
COSMOS 2561,2022-137A,2026-05-13T12:30:44.952768,15.50799517,.001113,96.9223,193.8338,145.5639,214.6337,0,U,54109,999,20097,.14529E-3,.8306E-4,0
GONETS-M 23,2022-139A,2026-05-13T11:42:52.018848,12.42889214,.0020768,82.5097,9.8598,299.4172,60.4835,0,U,54150,999,16133,.17467E-3,.34E-6,0
GONETS-M 24,2022-139B,2026-05-13T11:04:09.978240,12.42889826,.0016147,82.5013,8.9603,310.9725,48.9957,0,U,54151,999,16133,.18695E-3,.36E-6,0
GONETS-M 25,2022-139C,2026-05-13T12:40:25.534848,12.42889024,.0020027,82.5074,9.5862,308.5989,51.3297,0,U,54152,999,16134,.10727E-3,.25E-6,0
SKIF-D,2022-139D,2026-05-12T16:22:01.528032,5.00438680,.00074161,89.9555,96.6784,214.8824,145.1054,0,U,54153,999,6233,0,.31E-6,0
MATS,2022-147A,2026-05-13T09:57:15.729696,15.05133634,.0011461,97.6828,135.1684,323.9931,36.0522,0,U,54227,999,19253,.18688E-3,.2602E-4,0
JILIN-1 GAOFEN 03D54,2022-155D,2026-05-13T12:32:58.379424,15.82999486,.0001976,97.6091,282.4978,167.3052,192.8267,0,U,54254,999,19479,.5025E-3,.107642E-2,0
EOS-6 (OCEANSAT-3),2022-158A,2026-05-13T12:27:30.102624,14.47019625,.0002246,98.3512,232.1769,87.1792,272.9658,0,U,54361,999,18282,.5236E-4,.147E-5,0
DONGPO 09,2022-167D,2026-05-13T11:45:24.151968,15.35548098,.0001526,97.6873,302.9765,217.7302,142.3834,0,U,54685,999,19012,.20593E-3,.7028E-4,0
DONGPO 08,2022-167E,2026-05-13T12:59:09.114144,15.32948663,.0006878,97.6833,300.3699,292.3132,67.7380,0,U,54686,999,19001,.19182E-3,.6024E-4,0
2022-167F,2022-167F,2026-05-13T12:15:17.573184,15.81117996,.0003239,97.6172,317.4755,180.1771,179.9496,0,U,54687,999,19133,.44388E-3,.86951E-3,0
DONGPO 10,2022-167H,2026-05-13T12:00:38.220768,15.33729210,.0004196,97.6918,302.1976,224.6591,135.4313,0,U,54689,999,19004,.19683E-3,.6336E-4,0
JILIN-1 GAOFEN 03D48,2022-167P,2026-05-13T12:21:40.998240,15.34462284,.0005475,97.6850,301.5802,231.4750,128.6002,0,U,54695,999,19007,.20153E-3,.6643E-4,0
STAR VIBE,2023-001A,2026-05-13T10:54:50.920128,15.41643288,.000471,97.3195,197.8009,224.8645,135.2222,0,U,55009,999,18687,.20581E-3,.8586E-4,0
BRO-8,2023-001C,2026-05-13T11:06:46.156608,15.46936722,.0005036,97.3242,198.2009,231.9990,128.0806,0,U,55011,999,18683,.35763E-3,.17949E-3,0
CONNECTA T1.2,2023-001D,2026-05-13T10:11:02.147424,15.48188267,.0006027,97.3300,203.5629,204.8249,155.2712,0,U,55012,999,18716,.43078E-3,.22615E-3,0
BIRKELAND,2023-001G,2026-05-13T12:11:12.465024,15.39452377,.0005835,97.3365,201.4031,216.7479,143.3367,0,U,55015,999,18701,.19608E-3,.7604E-4,0
ION SCV-008,2023-001AU,2026-05-13T08:11:22.552800,15.28129366,.0016229,97.5689,229.0930,132.6058,227.6553,0,U,55051,999,18601,.15348E-3,.4146E-4,0
