STARLINK-4400           
1 53468U 22099D   26133.28778966 -.00002700  00000+0 -18317-3 0  9999
2 53468  97.5035 253.6379 0000411 321.3301  38.7897 15.05630076205698
STARLINK-4621           
1 53676U 22105AE  26133.22408255  .00006669  00000+0  46624-3 0  9991
2 53676  97.4970  13.5838 0001513  77.9515 282.1881 15.05620264202945
SHERPA-LTC2             
1 53754U 22107BG  26133.36285597  .00004271  00000+0  22329-3 0  9990
2 53754  53.2349   7.7079 0397681 128.7223 235.0017 14.69186771197422
CENTISPACE-1 S3         
1 53757U 22108A   26133.52844076  .00000143  00000+0  66902-4 0  9995
2 53757  53.5319 198.5717 0008228 248.9315 111.0780 14.61219691196469
CENTISPACE-1 S4         
1 53758U 22108B   26133.52877654  .00000224  00000+0  82191-4 0  9992
2 53758  53.5294 196.2513 0007972 234.4441 125.5792 14.61892620196491
BLUEWALKER-3            
1 53807U 22111AL  26133.34964929  .00002704  00000+0  82042-4 0  9993
2 53807  53.2284 197.4652 0007406  71.0801 289.1006 15.37840579204840
YUNHAI-1 03             
1 53877U 22115A   26133.47795696  .00000274  00000+0  11680-3 0  9990
2 53877  98.5537 132.0671 0005493 137.9408 222.2198 14.32693633190547
CENTISPACE-1 S5         
1 54020U 22126A   26133.51144519  .00000484  00000+0  13047-3 0  9992
2 54020  55.0001 351.7145 0012401   3.7020 356.4063 14.62948980191964
CENTISPACE-1 S6         
1 54021U 22126B   26133.48761836  .00000375  00000+0  11084-3 0  9994
2 54021  55.0004 353.5157 0014234   2.5486 357.5578 14.62238907191920
OTB-3-GAZELLE           
1 54023U 22127A   26133.38161174  .00000087  00000+0  39133-4 0  9991
2 54023  98.3941 125.6182 0011964 296.5146  63.4816 14.42661424189346
ASO-S                   
1 54029U 22129A   26133.45496148  .00000112  00000+0  38596-4 0  9990
2 54029  98.2756 139.0327 0013921 194.2106 165.8700 14.52044013190385
HJ-2E                   
1 54035U 22132A   26133.44077039  .00004667  00000+0  20745-3 0  9999
2 54035  97.3806 138.4585 0022346 128.2330 232.0922 15.21778642199138
COSMOS 2561             
1 54109U 22137A   26133.52135362  .00008306  00000+0  14529-3 0  9996
2 54109  96.9223 193.8338 0011130 145.5639 214.6337 15.50799517200979
GONETS-M 23             
1 54150U 22139A   26133.48810207  .00000034  00000+0  17467-3 0  9991
2 54150  82.5097   9.8598 0020768 299.4172  60.4835 12.42889214161335
GONETS-M 24             
1 54151U 22139B   26133.46122660  .00000036  00000+0  18695-3 0  9995
2 54151  82.5013   8.9603 0016147 310.9725  48.9957 12.42889826161335
GONETS-M 25             
1 54152U 22139C   26133.52807332  .00000025  00000+0  10727-3 0  9995
2 54152  82.5074   9.5862 0020027 308.5989  51.3297 12.42889024161340
SKIF-D                  
1 54153U 22139D   26132.68196213  .00000031  00000+0  00000+0 0  9997
2 54153  89.9555  96.6784 0007416 214.8824 145.1054  5.00438680 62336
MATS                    
1 54227U 22147A   26133.41476539  .00002602  00000+0  18688-3 0  9993
2 54227  97.6828 135.1684 0011461 323.9931  36.0522 15.05133634192532
JILIN-1 GAOFEN 03D54    
1 54254U 22155D   26133.52289791  .00107642  00000+0  50250-3 0  9997
2 54254  97.6091 282.4978 0001976 167.3052 192.8267 15.82999486194797
EOS-6 (OCEANSAT-3)      
1 54361U 22158A   26133.51909841  .00000147  00000+0  52360-4 0  9990
2 54361  98.3512 232.1769 0002246  87.1792 272.9658 14.47019625182826
DONGPO 09               
1 54685U 22167D   26133.48986287  .00007028  00000+0  20593-3 0  9991
2 54685  97.6873 302.9765 0001526 217.7302 142.3834 15.35548098190124
DONGPO 08               
1 54686U 22167E   26133.54107771  .00006024  00000+0  19182-3 0  9999
2 54686  97.6833 300.3699 0006878 292.3132  67.7380 15.32948663190017
2022-167F               
1 54687U 22167F   26133.51062006  .00086951  00000+0  44388-3 0  9991
2 54687  97.6172 317.4755 0003239 180.1771 179.9496 15.81117996191338
DONGPO 10               
1 54689U 22167H   26133.50044237  .00006336  00000+0  19683-3 0  9997
2 54689  97.6918 302.1976 0004196 224.6591 135.4313 15.33729210190048
JILIN-1 GAOFEN 03D48    
1 54695U 22167P   26133.51505785  .00006643  00000+0  20153-3 0  9990
2 54695  97.6850 301.5802 0005475 231.4750 128.6002 15.34462284190073
STAR VIBE               
1 55009U 23001A   26133.45475602  .00008586  00000+0  20581-3 0  9998
2 55009  97.3195 197.8009 0004710 224.8645 135.2222 15.41643288186871
BRO-8                   
1 55011U 23001C   26133.46303422  .00017949  00000+0  35763-3 0  9993
2 55011  97.3242 198.2009 0005036 231.9990 128.0806 15.46936722186833
CONNECTA T1.2           
1 55012U 23001D   26133.42433041  .00022615  00000+0  43078-3 0  9995
2 55012  97.3300 203.5629 0006027 204.8249 155.2712 15.48188267187164
BIRKELAND               
1 55015U 23001G   26133.50778316  .00007604  00000+0  19608-3 0  9997
2 55015  97.3365 201.4031 0005835 216.7479 143.3367 15.39452377187019
ION SCV-008             
1 55051U 23001AU  26133.34123325  .00004146  00000+0  15348-3 0  9998
2 55051  97.5689 229.0930 0016229 132.6058 227.6553 15.28129366186011
